CCSDS_OMM_VERS = 2.0
CREATION_DATE  = 
ORIGINATOR     = 

OBJECT_NAME    = STARLINK-37057
OBJECT_ID      = 2026-049V
CENTER_NAME    = EARTH
REF_FRAME      = TEME
TIME_SYSTEM    = UTC
MEAN_ELEMENT_THEORY = SGP/SGP4

EPOCH          = 2026-03-31T05:45:04.262688
MEAN_MOTION    = 15.80920874
ECCENTRICITY   = .00008653
INCLINATION    = 97.2843
RA_OF_ASC_NODE = 110.5928
ARG_OF_PERICENTER = 79.4185
MEAN_ANOMALY   = 280.7180

EPHEMERIS_TYPE = 0
CLASSIFICATION_TYPE = U
NORAD_CAT_ID   = 68161
ELEMENT_SET_NO = 999
REV_AT_EPOCH   = 281
BSTAR          = .13797586E-2
MEAN_MOTION_DOT = .273927E-2
MEAN_MOTION_DDOT = 0

CCSDS_OMM_VERS = 2.0
CREATION_DATE  = 
ORIGINATOR     = 

OBJECT_NAME    = STARLINK-37013
OBJECT_ID      = 2026-049W
CENTER_NAME    = EARTH
REF_FRAME      = TEME
TIME_SYSTEM    = UTC
MEAN_ELEMENT_THEORY = SGP/SGP4

EPOCH          = 2026-03-31T05:37:29.908416
MEAN_MOTION    = 15.80862731
ECCENTRICITY   = .00009789
INCLINATION    = 97.2852
RA_OF_ASC_NODE = 110.5992
ARG_OF_PERICENTER = 67.7564
MEAN_ANOMALY   = 292.3808

EPHEMERIS_TYPE = 0
CLASSIFICATION_TYPE = U
NORAD_CAT_ID   = 68162
ELEMENT_SET_NO = 999
REV_AT_EPOCH   = 281
BSTAR          = .73313418E-3
MEAN_MOTION_DOT = .142914E-2
MEAN_MOTION_DDOT = 0

CCSDS_OMM_VERS = 2.0
CREATION_DATE  = 
ORIGINATOR     = 

OBJECT_NAME    = STARLINK-36958
OBJECT_ID      = 2026-049X
CENTER_NAME    = EARTH
REF_FRAME      = TEME
TIME_SYSTEM    = UTC
MEAN_ELEMENT_THEORY = SGP/SGP4

EPOCH          = 2026-03-31T07:10:48.770976
MEAN_MOTION    = 15.80855606
ECCENTRICITY   = .00013984
INCLINATION    = 97.2852
RA_OF_ASC_NODE = 110.6650
ARG_OF_PERICENTER = 90.2532
MEAN_ANOMALY   = 269.8896

EPHEMERIS_TYPE = 0
CLASSIFICATION_TYPE = U
NORAD_CAT_ID   = 68163
ELEMENT_SET_NO = 999
REV_AT_EPOCH   = 282
BSTAR          = .50922212E-3
MEAN_MOTION_DOT = .98687E-3
MEAN_MOTION_DDOT = 0

CCSDS_OMM_VERS = 2.0
CREATION_DATE  = 
ORIGINATOR     = 

OBJECT_NAME    = STARLINK-37002
OBJECT_ID      = 2026-049Y
CENTER_NAME    = EARTH
REF_FRAME      = TEME
TIME_SYSTEM    = UTC
MEAN_ELEMENT_THEORY = SGP/SGP4

EPOCH          = 2026-03-31T07:11:53.759328
MEAN_MOTION    = 15.80870912
ECCENTRICITY   = .00015778
INCLINATION    = 97.2851
RA_OF_ASC_NODE = 110.6643
ARG_OF_PERICENTER = 81.9044
MEAN_ANOMALY   = 278.2403

EPHEMERIS_TYPE = 0
CLASSIFICATION_TYPE = U
NORAD_CAT_ID   = 68164
ELEMENT_SET_NO = 999
REV_AT_EPOCH   = 282
BSTAR          = .72671212E-3
MEAN_MOTION_DOT = .141697E-2
MEAN_MOTION_DDOT = 0

CCSDS_OMM_VERS = 2.0
CREATION_DATE  = 
ORIGINATOR     = 

OBJECT_NAME    = STARLINK-36971
OBJECT_ID      = 2026-049Z
CENTER_NAME    = EARTH
REF_FRAME      = TEME
TIME_SYSTEM    = UTC
MEAN_ELEMENT_THEORY = SGP/SGP4

EPOCH          = 2026-03-31T06:00:02.000160
MEAN_MOTION    = 15.76862974
ECCENTRICITY   = .00010775
INCLINATION    = 97.2852
RA_OF_ASC_NODE = 110.6138
ARG_OF_PERICENTER = 74.6667
MEAN_ANOMALY   = 3.3701

EPHEMERIS_TYPE = 0
CLASSIFICATION_TYPE = U
NORAD_CAT_ID   = 68165
ELEMENT_SET_NO = 999
REV_AT_EPOCH   = 408
BSTAR          = -.13731596E-1
MEAN_MOTION_DOT = -.1918156E-1
MEAN_MOTION_DDOT = 0

CCSDS_OMM_VERS = 2.0
CREATION_DATE  = 
ORIGINATOR     = 

OBJECT_NAME    = STARLINK-36273
OBJECT_ID      = 2026-049AA
CENTER_NAME    = EARTH
REF_FRAME      = TEME
TIME_SYSTEM    = UTC
MEAN_ELEMENT_THEORY = SGP/SGP4

EPOCH          = 2026-03-31T04:27:46.095552
MEAN_MOTION    = 15.75250626
ECCENTRICITY   = .00010546
INCLINATION    = 97.2844
RA_OF_ASC_NODE = 110.5134
ARG_OF_PERICENTER = 62.2207
MEAN_ANOMALY   = 297.9165

EPHEMERIS_TYPE = 0
CLASSIFICATION_TYPE = U
NORAD_CAT_ID   = 68166
ELEMENT_SET_NO = 999
REV_AT_EPOCH   = 280
BSTAR          = .11562877E-2
MEAN_MOTION_DOT = .176408E-2
MEAN_MOTION_DDOT = 0

CCSDS_OMM_VERS = 2.0
CREATION_DATE  = 
ORIGINATOR     = 

OBJECT_NAME    = STARLINK-36969
OBJECT_ID      = 2026-050A
CENTER_NAME    = EARTH
REF_FRAME      = TEME
TIME_SYSTEM    = UTC
MEAN_ELEMENT_THEORY = SGP/SGP4

EPOCH          = 2026-03-31T05:55:20.582400
MEAN_MOTION    = 15.80945376
ECCENTRICITY   = .00010419
INCLINATION    = 53.1582
RA_OF_ASC_NODE = 173.8067
ARG_OF_PERICENTER = 102.2588
MEAN_ANOMALY   = 257.8551

EPHEMERIS_TYPE = 0
CLASSIFICATION_TYPE = U
NORAD_CAT_ID   = 68167
ELEMENT_SET_NO = 999
REV_AT_EPOCH   = 388
BSTAR          = .11889594E-2
MEAN_MOTION_DOT = .241446E-2
MEAN_MOTION_DDOT = 0

CCSDS_OMM_VERS = 2.0
CREATION_DATE  = 
ORIGINATOR     = 

OBJECT_NAME    = STARLINK-36984
OBJECT_ID      = 2026-050B
CENTER_NAME    = EARTH
REF_FRAME      = TEME
TIME_SYSTEM    = UTC
MEAN_ELEMENT_THEORY = SGP/SGP4

EPOCH          = 2026-03-31T05:54:15.840288
MEAN_MOTION    = 15.80974217
ECCENTRICITY   = .00009102
INCLINATION    = 53.1581
RA_OF_ASC_NODE = 173.8021
ARG_OF_PERICENTER = 79.8648
MEAN_ANOMALY   = 280.2477

EPHEMERIS_TYPE = 0
CLASSIFICATION_TYPE = U
NORAD_CAT_ID   = 68168
ELEMENT_SET_NO = 999
REV_AT_EPOCH   = 388
BSTAR          = .1512321E-2
MEAN_MOTION_DOT = .310205E-2
MEAN_MOTION_DDOT = 0

CCSDS_OMM_VERS = 2.0
CREATION_DATE  = 
ORIGINATOR     = 

OBJECT_NAME    = STARLINK-37077
OBJECT_ID      = 2026-050C
CENTER_NAME    = EARTH
REF_FRAME      = TEME
TIME_SYSTEM    = UTC
MEAN_ELEMENT_THEORY = SGP/SGP4

EPOCH          = 2026-03-31T05:53:11.223456
MEAN_MOTION    = 15.80845621
ECCENTRICITY   = .00012602
INCLINATION    = 53.1589
RA_OF_ASC_NODE = 173.7969
ARG_OF_PERICENTER = 44.6762
MEAN_ANOMALY   = 315.4362

EPHEMERIS_TYPE = 0
CLASSIFICATION_TYPE = U
NORAD_CAT_ID   = 68169
ELEMENT_SET_NO = 999
REV_AT_EPOCH   = 388
BSTAR          = .79770631E-3
MEAN_MOTION_DOT = .15948E-2
MEAN_MOTION_DDOT = 0

CCSDS_OMM_VERS = 2.0
CREATION_DATE  = 
ORIGINATOR     = 

OBJECT_NAME    = STARLINK-37003
OBJECT_ID      = 2026-050D
CENTER_NAME    = EARTH
REF_FRAME      = TEME
TIME_SYSTEM    = UTC
MEAN_ELEMENT_THEORY = SGP/SGP4

EPOCH          = 2026-03-31T05:52:06.222144
MEAN_MOTION    = 15.80975064
ECCENTRICITY   = .0000784
INCLINATION    = 53.1580
RA_OF_ASC_NODE = 173.7921
ARG_OF_PERICENTER = 111.2786
MEAN_ANOMALY   = 248.8321

EPHEMERIS_TYPE = 0
CLASSIFICATION_TYPE = U
NORAD_CAT_ID   = 68170
ELEMENT_SET_NO = 999
REV_AT_EPOCH   = 388
BSTAR          = .15755897E-2
MEAN_MOTION_DOT = .323742E-2
MEAN_MOTION_DDOT = 0

CCSDS_OMM_VERS = 2.0
CREATION_DATE  = 
ORIGINATOR     = 

OBJECT_NAME    = STARLINK-37034
OBJECT_ID      = 2026-050E
CENTER_NAME    = EARTH
REF_FRAME      = TEME
TIME_SYSTEM    = UTC
MEAN_ELEMENT_THEORY = SGP/SGP4

EPOCH          = 2026-03-31T05:51:01.537056
MEAN_MOTION    = 15.80943335
ECCENTRICITY   = .00011145
INCLINATION    = 53.1587
RA_OF_ASC_NODE = 173.7867
ARG_OF_PERICENTER = 67.4427
MEAN_ANOMALY   = 292.6713

EPHEMERIS_TYPE = 0
CLASSIFICATION_TYPE = U
NORAD_CAT_ID   = 68171
ELEMENT_SET_NO = 999
REV_AT_EPOCH   = 388
BSTAR          = .13212657E-2
MEAN_MOTION_DOT = .269242E-2
MEAN_MOTION_DDOT = 0

CCSDS_OMM_VERS = 2.0
CREATION_DATE  = 
ORIGINATOR     = 

OBJECT_NAME    = STARLINK-37031
OBJECT_ID      = 2026-050F
CENTER_NAME    = EARTH
REF_FRAME      = TEME
TIME_SYSTEM    = UTC
MEAN_ELEMENT_THEORY = SGP/SGP4

EPOCH          = 2026-03-31T05:49:56.677440
MEAN_MOTION    = 15.80932941
ECCENTRICITY   = .00012729
INCLINATION    = 53.1585
RA_OF_ASC_NODE = 173.7801
ARG_OF_PERICENTER = 126.0372
MEAN_ANOMALY   = 234.0769

EPHEMERIS_TYPE = 0
CLASSIFICATION_TYPE = U
NORAD_CAT_ID   = 68172
ELEMENT_SET_NO = 999
REV_AT_EPOCH   = 388
BSTAR          = .93636085E-3
MEAN_MOTION_DOT = .188723E-2
MEAN_MOTION_DDOT = 0

