STARLINK-37057          
1 68161U 26049V   26090.23963267  .00273927  00000+0  13798-2 0  9997
2 68161  97.2843 110.5928 0000865  79.4185 280.7180 15.80920874  2817
STARLINK-37013          
1 68162U 26049W   26090.23437394  .00142914  00000+0  73313-3 0  9996
2 68162  97.2852 110.5992 0000978  67.7564 292.3808 15.80862731  2818
STARLINK-36958          
1 68163U 26049X   26090.29917559  .00098687  00000+0  50922-3 0  9997
2 68163  97.2852 110.6650 0001398  90.2532 269.8896 15.80855606  2824
STARLINK-37002          
1 68164U 26049Y   26090.29992777  .00141697  00000+0  72671-3 0  9998
2 68164  97.2851 110.6643 0001577  81.9044 278.2403 15.80870912  2825
STARLINK-36971          
1 68165U 26049Z   26090.25002315 -.01918156  00000+0 -13732-1 0  9991
2 68165  97.2852 110.6138 0001077  74.6667   3.3701 15.76862974  4083
STARLINK-36273          
1 68166U 26049AA  26090.18595018  .00176408  00000+0  11563-2 0  9995
2 68166  97.2844 110.5134 0001054  62.2207 297.9165 15.75250626  2805
STARLINK-36969          
1 68167U 26050A   26090.24676600  .00241446  00000+0  11890-2 0  9990
2 68167  53.1582 173.8067 0001041 102.2588 257.8551 15.80945376  3888
STARLINK-36984          
1 68168U 26050B   26090.24601667  .00310205  00000+0  15123-2 0  9995
2 68168  53.1581 173.8021 0000910  79.8648 280.2477 15.80974217  3881
STARLINK-37077          
1 68169U 26050C   26090.24526879  .00159480  00000+0  79771-3 0  9993
2 68169  53.1589 173.7969 0001260  44.6762 315.4362 15.80845621  3886
STARLINK-37003          
1 68170U 26050D   26090.24451646  .00323742  00000+0  15756-2 0  9990
2 68170  53.1580 173.7921 0000784 111.2786 248.8321 15.80975064  3883
STARLINK-37034          
1 68171U 26050E   26090.24376779  .00269242  00000+0  13213-2 0  9994
2 68171  53.1587 173.7867 0001114  67.4427 292.6713 15.80943335  3880
STARLINK-37031          
1 68172U 26050F   26090.24301710  .00188723  00000+0  93636-3 0  9990
2 68172  53.1585 173.7801 0001272 126.0372 234.0769 15.80932941  3885
